0 COSMOS 2251 DEB
1 37516U 93036BMV 13281.39244336  .00013580  00000-0  14005-2 0  2859
2 37516 073.8495 282.3092 0087922 207.8647 219.8248 14.87377510214271
0 COSMOS 2251 DEB
1 37516U 93036BMV 13283.66652975  .00016286  00000-0  16704-2 0  2868
2 37516 073.8498 277.7294 0088373 202.4011 157.3799 14.87464611202793
0 COSMOS 2251 DEB
1 37516U 93036BMV 13283.68891382  .00021971  00000-0  22550-2 0  2860
2 37516 073.8496 277.6810 0087747 202.8000 276.7895 14.87485042214629
0 COSMOS 2251 DEB
1 37516U 93036BMV 13285.29163428  .00017633  00000-0  18105-2 0  2885
2 37516 073.8490 274.4483 0087502 199.1708 219.4509 14.87525025214853
0 COSMOS 2251 DEB
1 37516U 93036BMV 13287.31011579  .00019121  00000-0  19600-2 0  2895
2 37516 073.8484 270.3783 0087305 194.6465 228.8958 14.87587911215153
0 COSMOS 2251 DEB
1 37516U 93036BMV 13288.31972517  .00029612  00000-0  30255-2 0  2901
2 37516 073.8484 268.3423 0087172 192.3386 235.8393 14.87639551215306
0 COSMOS 2251 DEB
1 37516U 93036BMV 13290.61634435  .00028471  00000-0  29037-2 0  2910
2 37516 073.8488 263.7098 0086960 187.1604 295.8846 14.87733065215658
0 COSMOS 2251 DEB
1 37516U 93036BMV 13291.62420375  .00023025  00000-0  23497-2 0  2923
2 37516 073.8493 261.6771 0086570 184.7317 294.0904 14.87774813215809
0 COSMOS 2251 DEB
1 37516U 93036BMV 13293.29553363  .00023929  00000-0  24365-2 0  2931
2 37516 073.8498 258.3060 0086878 181.1322 245.8217 14.87837179216049
0 COSMOS 2251 DEB
1 37516U 93036BMV 13295.24478275  .00027871  00000-0  28316-2 0  2947
2 37516 073.8504 254.3744 0086640 176.7092 246.7886 14.87908561216331
